[
  {
    "CCSDS_OMM_VERS": "3.0",
    "COMMENT": "GENERATED VIA SPACE-TRACK.ORG API",
    "CREATION_DATE": "2026-02-19T17:59:09",
    "ORIGINATOR": "18 SPCS",
    "OBJECT_NAME": "COSMOS 2392",
    "OBJECT_ID": "2002-037A",
    "CENTER_NAME": "EARTH",
    "REF_FRAME": "TEME",
    "TIME_SYSTEM": "UTC",
    "MEAN_ELEMENT_THEORY": "SGP4",
    "EPOCH": "2026-02-19T15:32:04.525440",
    "MEAN_MOTION": "12.06806353",
    "ECCENTRICITY": "0.06151215",
    "INCLINATION": "63.3996",
    "RA_OF_ASC_NODE": "285.6300",
    "ARG_OF_PERICENTER": "358.7779",
    "MEAN_ANOMALY": "17.6209",
    "EPHEMERIS_TYPE": "0",
    "CLASSIFICATION_TYPE": "U",
    "NORAD_CAT_ID": "27470",
    "ELEMENT_SET_NO": "999",
    "REV_AT_EPOCH": "3911",
    "BSTAR": "-0.00173794180000",
    "MEAN_MOTION_DOT": "-0.00000330",
    "MEAN_MOTION_DDOT": "0.0000000000000",
    "SEMIMAJOR_AXIS": "8028.667",
    "PERIOD": "119.323",
    "APOAPSIS": "2144.393",
    "PERIAPSIS": "1156.671",
    "OBJECT_TYPE": "PAYLOAD",
    "RCS_SIZE": "LARGE",
    "COUNTRY_CODE": "CIS",
    "LAUNCH_DATE": "2002-07-25",
    "SITE": "TTMTR",
    "DECAY_DATE": null,
    "FILE": "5039972",
    "GP_ID": "313163203",
    "TLE_LINE0": "0 COSMOS 2392",
    "TLE_LINE1": "1 27470U 02037A   26050.64727460 -.00000330  00000-0 -17379-2 0  9998",
    "TLE_LINE2": "2 27470  63.3996 285.6300 0615122 358.7779  17.6209 12.06806353 39118"
  },
  {
    "CCSDS_OMM_VERS": "3.0",
    "COMMENT": "GENERATED VIA SPACE-TRACK.ORG API",
    "CREATION_DATE": "2026-02-19T17:59:09",
    "ORIGINATOR": "18 SPCS",
    "OBJECT_NAME": "EDUSAT",
    "OBJECT_ID": "2011-044A",
    "CENTER_NAME": "EARTH",
    "REF_FRAME": "TEME",
    "TIME_SYSTEM": "UTC",
    "MEAN_ELEMENT_THEORY": "SGP4",
    "EPOCH": "2026-02-19T15:31:32.877120",
    "MEAN_MOTION": "14.76276636",
    "ECCENTRICITY": "0.00353972",
    "INCLINATION": "98.2834",
    "RA_OF_ASC_NODE": "305.4205",
    "ARG_OF_PERICENTER": "134.5835",
    "MEAN_ANOMALY": "256.1044",
    "EPHEMERIS_TYPE": "0",
    "CLASSIFICATION_TYPE": "U",
    "NORAD_CAT_ID": "37788",
    "ELEMENT_SET_NO": "999",
    "REV_AT_EPOCH": "77918",
    "BSTAR": "0.00014794971000",
    "MEAN_MOTION_DOT": "0.00000980",
    "MEAN_MOTION_DDOT": "0.0000000000000",
    "SEMIMAJOR_AXIS": "7019.239",
    "PERIOD": "97.543",
    "APOAPSIS": "665.950",
    "PERIAPSIS": "616.258",
    "OBJECT_TYPE": "PAYLOAD",
    "RCS_SIZE": "MEDIUM",
    "COUNTRY_CODE": "IT",
    "LAUNCH_DATE": "2011-08-17",
    "SITE": "OREN",
    "DECAY_DATE": null,
    "FILE": "5039972",
    "GP_ID": "313168548",
    "TLE_LINE0": "0 EDUSAT",
    "TLE_LINE1": "1 37788U 11044A   26050.64690830  .00000980  00000-0  14795-3 0  9998",
    "TLE_LINE2": "2 37788  98.2834 305.4205 0035397 134.5835 256.1044 14.76276636779186"
  },
  {
    "CCSDS_OMM_VERS": "3.0",
    "COMMENT": "GENERATED VIA SPACE-TRACK.ORG API",
    "CREATION_DATE": "2026-02-19T17:59:09",
    "ORIGINATOR": "18 SPCS",
    "OBJECT_NAME": "ONEWEB-0220",
    "OBJECT_ID": "2021-031Y",
    "CENTER_NAME": "EARTH",
    "REF_FRAME": "TEME",
    "TIME_SYSTEM": "UTC",
    "MEAN_ELEMENT_THEORY": "SGP4",
    "EPOCH": "2026-02-19T15:31:21.212256",
    "MEAN_MOTION": "13.14503787",
    "ECCENTRICITY": "0.00018917",
    "INCLINATION": "87.9023",
    "RA_OF_ASC_NODE": "313.1351",
    "ARG_OF_PERICENTER": "76.5906",
    "MEAN_ANOMALY": "283.5434",
    "EPHEMERIS_TYPE": "0",
    "CLASSIFICATION_TYPE": "U",
    "NORAD_CAT_ID": "48232",
    "ELEMENT_SET_NO": "999",
    "REV_AT_EPOCH": "23296",
    "BSTAR": "0.00036282584000",
    "MEAN_MOTION_DOT": "0.00000147",
    "MEAN_MOTION_DDOT": "0.0000000000000",
    "SEMIMAJOR_AXIS": "7583.924",
    "PERIOD": "109.547",
    "APOAPSIS": "1207.223",
    "PERIAPSIS": "1204.354",
    "OBJECT_TYPE": "PAYLOAD",
    "RCS_SIZE": "LARGE",
    "COUNTRY_CODE": "UK",
    "LAUNCH_DATE": "2021-04-25",
    "SITE": "VOSTO",
    "DECAY_DATE": null,
    "FILE": "5039972",
    "GP_ID": "313173330",
    "TLE_LINE0": "0 ONEWEB-0220",
    "TLE_LINE1": "1 48232U 21031Y   26050.64677329  .00000147  00000-0  36283-3 0  9990",
    "TLE_LINE2": "2 48232  87.9023 313.1351 0001892  76.5906 283.5434 13.14503787232960"
  },
  {
    "CCSDS_OMM_VERS": "3.0",
    "COMMENT": "GENERATED VIA SPACE-TRACK.ORG API",
    "CREATION_DATE": "2026-02-19T17:59:09",
    "ORIGINATOR": "18 SPCS",
    "OBJECT_NAME": "YUBELEINY 2",
    "OBJECT_ID": "2012-041C",
    "CENTER_NAME": "EARTH",
    "REF_FRAME": "TEME",
    "TIME_SYSTEM": "UTC",
    "MEAN_ELEMENT_THEORY": "SGP4",
    "EPOCH": "2026-02-19T15:30:30.345120",
    "MEAN_MOTION": "12.42643588",
    "ECCENTRICITY": "0.00164180",
    "INCLINATION": "82.4794",
    "RA_OF_ASC_NODE": "147.9921",
    "ARG_OF_PERICENTER": "325.8658",
    "MEAN_ANOMALY": "34.1365",
    "EPHEMERIS_TYPE": "0",
    "CLASSIFICATION_TYPE": "U",
    "NORAD_CAT_ID": "38735",
    "ELEMENT_SET_NO": "999",
    "REV_AT_EPOCH": "61524",
    "BSTAR": "0.00030039521000",
    "MEAN_MOTION_DOT": "0.00000051",
    "MEAN_MOTION_DDOT": "0.0000000000000",
    "SEMIMAJOR_AXIS": "7873.554",
    "PERIOD": "115.882",
    "APOAPSIS": "1508.345",
    "PERIAPSIS": "1482.492",
    "OBJECT_TYPE": "PAYLOAD",
    "RCS_SIZE": "MEDIUM",
    "COUNTRY_CODE": "CIS",
    "LAUNCH_DATE": "2012-07-28",
    "SITE": "PKMTR",
    "DECAY_DATE": null,
    "FILE": "5039972",
    "GP_ID": "313168854",
    "TLE_LINE0": "0 YUBELEINY 2",
    "TLE_LINE1": "1 38735U 12041C   26050.64618455  .00000051  00000-0  30040-3 0  9992",
    "TLE_LINE2": "2 38735  82.4794 147.9921 0016418 325.8658  34.1365 12.42643588615245"
  },
  {
    "CCSDS_OMM_VERS": "3.0",
    "COMMENT": "GENERATED VIA SPACE-TRACK.ORG API",
    "CREATION_DATE": "2026-02-19T17:59:09",
    "ORIGINATOR": "18 SPCS",
    "OBJECT_NAME": "COSMOS 1619",
    "OBJECT_ID": "1985-003C",
    "CENTER_NAME": "EARTH",
    "REF_FRAME": "TEME",
    "TIME_SYSTEM": "UTC",
    "MEAN_ELEMENT_THEORY": "SGP4",
    "EPOCH": "2026-02-19T15:30:21.362112",
    "MEAN_MOTION": "12.66276331",
    "ECCENTRICITY": "0.00181507",
    "INCLINATION": "82.6065",
    "RA_OF_ASC_NODE": "117.8317",
    "ARG_OF_PERICENTER": "310.3011",
    "MEAN_ANOMALY": "208.8006",
    "EPHEMERIS_TYPE": "0",
    "CLASSIFICATION_TYPE": "U",
    "NORAD_CAT_ID": "15471",
    "ELEMENT_SET_NO": "999",
    "REV_AT_EPOCH": "89917",
    "BSTAR": "0.00014442786000",
    "MEAN_MOTION_DOT": "0.00000038",
    "MEAN_MOTION_DDOT": "0.0000000000000",
    "SEMIMAJOR_AXIS": "7775.283",
    "PERIOD": "113.719",
    "APOAPSIS": "1411.260",
    "PERIAPSIS": "1383.035",
    "OBJECT_TYPE": "PAYLOAD",
    "RCS_SIZE": "LARGE",
    "COUNTRY_CODE": "CIS",
    "LAUNCH_DATE": "1985-01-15",
    "SITE": "PKMTR",
    "DECAY_DATE": null,
    "FILE": "5039972",
    "GP_ID": "313159373",
    "TLE_LINE0": "0 COSMOS 1619",
    "TLE_LINE1": "1 15471U 85003C   26050.64608058  .00000038  00000-0  14443-3 0  9994",
    "TLE_LINE2": "2 15471  82.6065 117.8317 0018151 310.3011 208.8006 12.66276331899175"
  },
  {
    "CCSDS_OMM_VERS": "3.0",
    "COMMENT": "GENERATED VIA SPACE-TRACK.ORG API",
    "CREATION_DATE": "2026-02-19T17:59:09",
    "ORIGINATOR": "18 SPCS",
    "OBJECT_NAME": "ONEWEB-0181",
    "OBJECT_ID": "2021-031W",
    "CENTER_NAME": "EARTH",
    "REF_FRAME": "TEME",
    "TIME_SYSTEM": "UTC",
    "MEAN_ELEMENT_THEORY": "SGP4",
    "EPOCH": "2026-02-19T15:29:04.352928",
    "MEAN_MOTION": "13.14504569",
    "ECCENTRICITY": "0.00017895",
    "INCLINATION": "87.9007",
    "RA_OF_ASC_NODE": "313.1804",
    "ARG_OF_PERICENTER": "82.3788",
    "MEAN_ANOMALY": "277.7545",
    "EPHEMERIS_TYPE": "0",
    "CLASSIFICATION_TYPE": "U",
    "NORAD_CAT_ID": "48230",
    "ELEMENT_SET_NO": "999",
    "REV_AT_EPOCH": "23279",
    "BSTAR": "0.00043171912000",
    "MEAN_MOTION_DOT": "0.00000173",
    "MEAN_MOTION_DDOT": "0.0000000000000",
    "SEMIMAJOR_AXIS": "7583.921",
    "PERIOD": "109.547",
    "APOAPSIS": "1207.143",
    "PERIAPSIS": "1204.428",
    "OBJECT_TYPE": "PAYLOAD",
    "RCS_SIZE": "LARGE",
    "COUNTRY_CODE": "UK",
    "LAUNCH_DATE": "2021-04-25",
    "SITE": "VOSTO",
    "DECAY_DATE": null,
    "FILE": "5039972",
    "GP_ID": "313173329",
    "TLE_LINE0": "0 ONEWEB-0181",
    "TLE_LINE1": "1 48230U 21031W   26050.64518927  .00000173  00000-0  43172-3 0  9990",
    "TLE_LINE2": "2 48230  87.9007 313.1804 0001789  82.3788 277.7545 13.14504569232799"
  },
  {
    "CCSDS_OMM_VERS": "3.0",
    "COMMENT": "GENERATED VIA SPACE-TRACK.ORG API",
    "CREATION_DATE": "2026-02-19T17:59:09",
    "ORIGINATOR": "18 SPCS",
    "OBJECT_NAME": "ONEWEB-0237",
    "OBJECT_ID": "2021-045D",
    "CENTER_NAME": "EARTH",
    "REF_FRAME": "TEME",
    "TIME_SYSTEM": "UTC",
    "MEAN_ELEMENT_THEORY": "SGP4",
    "EPOCH": "2026-02-19T15:28:53.788800",
    "MEAN_MOTION": "13.15550434",
    "ECCENTRICITY": "0.00014086",
    "INCLINATION": "87.8962",
    "RA_OF_ASC_NODE": "282.6806",
    "ARG_OF_PERICENTER": "101.7784",
    "MEAN_ANOMALY": "258.3505",
    "EPHEMERIS_TYPE": "0",
    "CLASSIFICATION_TYPE": "U",
    "NORAD_CAT_ID": "48770",
    "ELEMENT_SET_NO": "999",
    "REV_AT_EPOCH": "22893",
    "BSTAR": "0.00032230784000",
    "MEAN_MOTION_DOT": "0.00000134",
    "MEAN_MOTION_DDOT": "0.0000000000000",
    "SEMIMAJOR_AXIS": "7579.901",
    "PERIOD": "109.460",
    "APOAPSIS": "1202.833",
    "PERIAPSIS": "1200.698",
    "OBJECT_TYPE": "PAYLOAD",
    "RCS_SIZE": "LARGE",
    "COUNTRY_CODE": "UK",
    "LAUNCH_DATE": "2021-05-28",
    "SITE": "VOSTO",
    "DECAY_DATE": null,
    "FILE": "5039972",
    "GP_ID": "313174007",
    "TLE_LINE0": "0 ONEWEB-0237",
    "TLE_LINE1": "1 48770U 21045D   26050.64506700  .00000134  00000-0  32231-3 0  9991",
    "TLE_LINE2": "2 48770  87.8962 282.6806 0001409 101.7784 258.3505 13.15550434228935"
  }
]